{"type":"Feature","properties":{"name":"India mainland","source":"Natural Earth","dataset":"ne_10m_admin_0_countries_ind","version":"5.1.1","viewpoint":"India","license":"Public domain","simplification_degrees":0.02,"selection":"Largest polygon; offshore islands excluded","source_url":"https://www.naturalearthdata.com/downloads/10m-cultural-vectors/"},"geometry":{"type":"Polygon","coordinates":[[[78.91769,33.38626],[79.09803,33.28765],[79.42008,33.27517],[79.4561,33.2504],[79.37317,33.11214],[79.39927,33.02688],[79.33359,32.99429],[79.41409,32.97205],[79.62067,32.72873],[79.4435,32.53477],[79.40682,32.52968],[79.37948,32.57645],[79.32047,32.59227],[79.28741,32.53258],[79.11293,32.47239],[79.07531,32.37079],[78.94343,32.34637],[78.77145,32.46166],[78.73683,32.62984],[78.63017,32.57801],[78.38481,32.54755],[78.45219,32.41678],[78.45798,32.22966],[78.51307,32.20757],[78.74458,31.9642],[78.67089,31.77052],[78.72401,31.67331],[78.81889,31.60737],[78.69952,31.51002],[78.76256,31.44511],[78.74509,31.30812],[78.92101,31.26969],[79.07021,31.46138],[79.1314,31.43843],[79.23832,31.32966],[79.25286,31.24544],[79.36705,31.11156],[79.40159,31.02364],[79.47642,31.01403],[79.57781,30.93837],[79.73904,30.97925],[79.85035,30.95449],[80.06253,30.78479],[80.1571,30.79316],[80.22459,30.73409],[80.20702,30.68614],[80.16661,30.67441],[80.2033,30.60635],[80.17984,30.55948],[80.25281,30.56501],[80.50829,30.46233],[80.59635,30.4598],[80.72306,30.39205],[80.78166,30.32099],[80.97602,30.25521],[81.0033,30.21273],[80.92083,30.17666],[80.86791,30.20017],[80.82983,30.11713],[80.71583,30.01331],[80.57134,29.94686],[80.47615,29.80614],[80.36898,29.75793],[80.3544,29.70488],[80.3852,29.60483],[80.21374,29.41689],[80.28009,29.31015],[80.25818,29.20246],[80.2188,29.21109],[80.22066,29.12608],[80.13261,29.11021],[80.09943,28.97728],[80.03391,28.91594],[80.03639,28.83703],[80.23327,28.73272],[80.3297,28.62748],[80.40835,28.62634],[80.48845,28.56244],[80.48762,28.65647],[80.55584,28.67895],[80.56359,28.64704],[80.63563,28.62787],[80.78166,28.51475],[80.87225,28.49687],[80.90527,28.44085],[81.1697,28.36132],[81.29621,28.12831],[81.39604,28.16063],[81.47346,28.0664],[81.85565,27.85094],[81.97591,27.91695],[82.02722,27.91241],[82.40193,27.67717],[82.67969,27.69441],[82.75214,27.49496],[83.13279,27.44422],[83.28244,27.33094],[83.36275,27.38562],[83.35592,27.45249],[83.38703,27.47047],[83.59043,27.45662],[83.8546,27.34505],[83.87765,27.36991],[83.83409,27.43404],[84.00767,27.44081],[84.11717,27.51328],[84.28941,27.37611],[84.60655,27.31048],[84.65765,27.20341],[84.62148,27.05799],[84.64024,27.02838],[84.81749,27.0106],[84.92405,26.95567],[85.01856,26.8458],[85.16202,26.85102],[85.19493,26.75888],[85.28728,26.73697],[85.60938,26.85102],[85.70183,26.79661],[85.71289,26.65321],[85.82854,26.56613],[86.01137,26.65445],[86.19585,26.58267],[86.28443,26.61202],[86.7136,26.41456],[86.7382,26.44371],[86.82186,26.43813],[87.04133,26.58019],[87.10629,26.40475],[87.2191,26.4081],[87.30049,26.34599],[87.41645,26.42697],[87.58698,26.37803],[87.86981,26.46464],[87.92898,26.39643],[88.00665,26.36986],[88.07419,26.45394],[88.16907,26.744],[88.15139,26.86281],[87.96918,27.1108],[88.03512,27.32257],[88.02334,27.49491],[88.15966,27.77412],[88.16462,27.84536],[88.11822,27.86088],[88.09992,27.92832],[88.37877,27.98263],[88.50207,28.02888],[88.594,28.10661],[88.80293,28.011],[88.85507,27.85918],[88.80567,27.65511],[88.74164,27.53168],[88.77358,27.40851],[88.89233,27.31554],[88.86143,27.27038],[88.77585,27.24087],[88.73007,27.15095],[88.82763,27.09788],[88.85171,26.94544],[88.90665,26.98109],[88.93233,26.91924],[89.02157,26.91267],[89.0965,26.82141],[89.21283,26.81304],[89.34166,26.85433],[89.44289,26.79702],[89.58609,26.78405],[89.60981,26.71222],[89.81367,26.69615],[89.83496,26.73155],[89.89041,26.71486],[90.12719,26.75139],[90.17742,26.83206],[90.34883,26.89665],[90.58778,26.78007],[90.71708,26.76705],[91.06207,26.80457],[91.29658,26.77459],[91.42019,26.87154],[91.47507,26.86554],[91.52065,26.79759],[91.70213,26.80348],[91.82512,26.85847],[91.87866,26.80302],[91.89313,26.88136],[91.97509,26.84663],[92.07276,26.88777],[92.06697,26.99494],[91.9879,27.12227],[92.08878,27.29234],[92.0236,27.44678],[91.97509,27.47243],[91.72709,27.45994],[91.60446,27.53214],[91.57325,27.61971],[91.63577,27.78252],[91.56602,27.82107],[91.56435,27.85137],[91.82659,27.80763],[91.86491,27.72999],[91.95225,27.72482],[91.9889,27.7694],[92.06488,27.76172],[92.23957,27.86528],[92.30385,27.78616],[92.32918,27.83293],[92.36793,27.80383],[92.39284,27.85603],[92.42757,27.82117],[92.57498,27.84781],[92.68367,27.91045],[92.73639,27.98591],[92.68926,28.04831],[92.63892,28.05749],[92.67861,28.13306],[92.77917,28.1959],[92.83478,28.18353],[92.97492,28.28231],[93.20782,28.34054],[93.21807,28.39465],[93.18629,28.432],[93.28697,28.52052],[93.31717,28.60346],[93.44621,28.67189],[93.86308,28.70487],[93.92779,28.68275],[93.99202,28.84465],[94.17366,28.93016],[94.25018,28.93311],[94.34731,29.02435],[94.27079,29.09793],[94.28751,29.14794],[94.33577,29.14962],[94.39644,29.20708],[94.51478,29.22106],[94.59994,29.31664],[94.70422,29.2847],[94.77657,29.1667],[94.98906,29.15398],[95.1997,29.09425],[95.22492,29.05936],[95.36741,29.0365],[95.48758,29.06899],[95.51534,29.20943],[95.56443,29.24561],[95.71716,29.21828],[95.74478,29.34043],[95.79594,29.35289],[95.86313,29.32399],[95.95373,29.35922],[96.14197,29.36847],[96.17628,29.28646],[96.23529,29.24121],[96.34991,29.27423],[96.36686,29.24421],[96.32748,29.18044],[96.17463,29.10884],[96.19532,28.94111],[96.24859,28.94534],[96.36657,29.03654],[96.45761,28.99459],[96.57667,28.80853],[96.59801,28.70991],[96.50104,28.68763],[96.50238,28.64448],[96.30185,28.42071],[96.36964,28.37812],[96.56152,28.44729],[96.71692,28.43654],[96.96579,28.33047],[97.11555,28.36656],[97.3235,28.21748],[97.2929,28.09508],[97.36225,27.99488],[97.33352,27.89416],[97.22293,27.89972],[96.86213,27.5993],[96.88135,27.44411],[97.10129,27.1833],[97.13477,27.12734],[97.11917,27.08729],[97.03804,27.08703],[96.86533,27.17162],[96.85376,27.24873],[96.70524,27.36076],[96.64901,27.33621],[96.5869,27.35358],[96.51094,27.2925],[96.14259,27.25751],[96.01319,27.1908],[95.91645,27.05137],[95.77796,26.99515],[95.69931,26.89619],[95.62427,26.88074],[95.57477,26.81614],[95.48981,26.81072],[95.41064,26.70163],[95.26057,26.64763],[95.20487,26.66757],[95.1228,26.61161],[95.04064,26.47559],[95.06606,26.40743],[95.04177,26.2876],[95.09448,26.19504],[95.08818,26.10409],[95.15123,26.04994],[95.00064,25.92204],[95.0088,25.73714],[94.96147,25.71797],[94.86029,25.56717],[94.65947,25.4555],[94.608,25.39463],[94.55333,25.20415],[94.68913,25.13852],[94.70856,25.02589],[94.58154,24.73012],[94.51633,24.70495],[94.29536,24.3326],[94.13186,23.85697],[94.09971,23.84263],[93.91233,23.93901],[93.80371,23.93606],[93.71111,24.00546],[93.6124,24.00905],[93.57106,23.96802],[93.45665,23.95996],[93.36828,24.07848],[93.30968,24.06398],[93.30297,23.99528],[93.35599,23.90699],[93.3748,23.73902],[93.4303,23.68034],[93.3749,23.12973],[93.27279,23.00591],[93.17708,23.05844],[93.14008,23.0319],[93.17553,22.88171],[93.07952,22.77272],[93.07084,22.69288],[93.11052,22.59635],[93.09915,22.51196],[93.16592,22.38659],[93.17367,22.25942],[93.12355,22.23069],[93.14174,22.18728],[93.02453,22.2019],[93.02546,22.11291],[92.96717,22.06269],[92.97895,21.99535],[92.90619,22.01731],[92.87746,21.95701],[92.83612,22.04651],[92.68378,22.15431],[92.65091,22.01917],[92.57588,21.97757],[92.53733,22.12862],[92.57702,22.16867],[92.49588,22.69562],[92.44204,22.76293],[92.42633,22.87106],[92.35987,22.92661],[92.32762,23.17143],[92.34861,23.35411],[92.2528,23.60931],[92.25931,23.70649],[92.2221,23.70778],[92.1943,23.64814],[92.15079,23.73165],[92.01901,23.64006],[91.92269,23.72297],[91.94078,23.49518],[91.81768,23.40092],[91.74368,23.27233],[91.79556,23.0895],[91.70699,22.99537],[91.58607,22.94447],[91.52364,22.99521],[91.4636,23.18412],[91.39435,23.26266],[91.35569,23.22414],[91.37089,23.06278],[91.31353,23.10105],[91.26578,23.32935],[91.28728,23.35555],[91.13628,23.62951],[91.17524,23.67031],[91.13235,23.72065],[91.19498,23.75517],[91.22526,23.82614],[91.21627,23.90839],[91.27415,23.98823],[91.33905,23.99523],[91.36303,24.09985],[91.58183,24.0961],[91.62906,24.21532],[91.70368,24.14295],[91.73262,24.16431],[91.73293,24.23428],[91.80704,24.22113],[91.84424,24.15532],[91.87711,24.15804],[91.89985,24.33805],[91.97219,24.31606],[91.94997,24.37539],[92.06273,24.37102],[92.10759,24.40598],[92.11089,24.51429],[92.1636,24.5592],[92.23378,24.77753],[92.22303,24.89138],[92.29042,24.8913],[92.38075,24.8367],[92.47769,24.86391],[92.48379,24.92822],[92.30354,25.07428],[92.034,25.18167],[91.73014,25.16746],[91.63867,25.12405],[91.56612,25.15996],[91.43187,25.13795],[91.2357,25.20193],[90.82198,25.14229],[90.62344,25.17144],[90.36464,25.14999],[89.90813,25.29691],[89.81904,25.28497],[89.79501,25.37416],[89.83439,25.63477],[89.78313,25.81445],[89.83439,25.93175],[89.79202,25.94911],[89.82866,25.9794],[89.75584,26.03242],[89.71848,26.14554],[89.6558,26.1613],[89.65301,26.22269],[89.61332,26.21938],[89.61441,26.16419],[89.56278,26.14259],[89.60423,26.12073],[89.56702,26.08709],[89.61136,26.07221],[89.5417,25.95971],[89.48563,25.99872],[89.3353,25.99857],[89.11919,26.14662],[89.06943,26.28739],[89.10291,26.32733],[89.04374,26.38108],[88.94101,26.43942],[88.89125,26.38578],[88.98173,26.29183],[89.00798,26.29716],[89.03971,26.24718],[89.01945,26.23447],[88.97532,26.22434],[88.87579,26.27736],[88.82484,26.22657],[88.74795,26.2925],[88.6634,26.26444],[88.64583,26.27602],[88.71224,26.32826],[88.65627,26.41513],[88.41102,26.5451],[88.39438,26.61801],[88.37252,26.61161],[88.31511,26.46505],[88.33562,26.44821],[88.35355,26.48459],[88.46114,26.45389],[88.49763,26.35271],[88.43169,26.36222],[88.3366,26.28181],[88.32627,26.21592],[88.1638,26.14047],[88.15103,26.03133],[88.0744,25.90814],[88.08757,25.83098],[88.12773,25.77491],[88.25991,25.78902],[88.41944,25.65378],[88.42378,25.59224],[88.53029,25.5002],[88.66635,25.46289],[88.74195,25.51276],[88.77234,25.50196],[88.81492,25.4586],[88.79962,25.39561],[88.842,25.33282],[88.98493,25.28497],[88.92907,25.22942],[88.92416,25.16787],[88.81709,25.19681],[88.78422,25.16095],[88.4413,25.18973],[88.4258,25.05106],[88.32275,24.87468],[88.24276,24.8806],[88.20245,24.9453],[88.11491,24.91641],[88.14096,24.84458],[88.05321,24.75498],[88.02179,24.6456],[88.08184,24.59987],[88.10995,24.50099],[88.47541,24.31547],[88.63452,24.29413],[88.66015,24.33826],[88.73751,24.2871],[88.7464,24.21408],[88.67808,24.15429],[88.6741,24.08264],[88.725,24.03838],[88.71415,23.92516],[88.65312,23.86978],[88.57762,23.85516],[88.5401,23.64995],[88.71942,23.4681],[88.77017,23.48883],[88.68594,23.29331],[88.69658,23.25235],[88.95998,23.20269],[88.8513,23.07513],[88.83879,22.97581],[88.94452,22.84801],[88.90814,22.74078],[88.95641,22.58498],[88.92799,22.54813],[88.97098,22.52793],[89.00912,22.28562],[89.07816,22.15085],[89.04371,22.1374],[89.03688,22.0856],[89.06088,21.93846],[89.00953,21.90461],[88.94467,21.93879],[88.92872,21.98656],[88.90504,21.96943],[89.01588,21.85334],[89.08269,21.61734],[89.03395,21.63325],[89.00025,21.60342],[88.89161,21.65351],[88.85865,21.76683],[88.83823,21.70197],[88.85865,21.63654],[88.80584,21.62287],[88.81088,21.69172],[88.77711,21.64354],[88.79054,21.56826],[88.70753,21.57831],[88.69451,21.83983],[88.76303,22.01728],[88.70851,22.07221],[88.76303,22.13056],[88.69483,22.08153],[88.73072,22.03718],[88.68995,21.94599],[88.63087,21.94546],[88.6395,22.10952],[88.68312,22.18496],[88.66017,22.20502],[88.56707,21.85082],[88.56463,21.76683],[88.62403,21.77802],[88.63282,21.75007],[88.61264,21.6975],[88.59181,21.70539],[88.57228,21.55793],[88.53647,21.5751],[88.54396,21.53408],[88.51295,21.52464],[88.48797,21.55655],[88.52963,21.65762],[88.50489,21.74152],[88.53289,21.79531],[88.49562,21.95181],[88.45631,21.62401],[88.39308,21.60025],[88.39259,21.69855],[88.35572,21.68496],[88.33123,21.71906],[88.34881,21.6503],[88.30974,21.61017],[88.29819,21.76411],[88.26157,21.79865],[88.30584,21.57168],[88.25441,21.55467],[88.1819,21.66523],[88.20973,21.78856],[88.14674,21.95921],[88.22242,22.07795],[88.19801,22.16779],[88.07732,22.24042],[88.00904,22.24042],[87.94044,22.41303],[87.90659,22.42475],[87.96534,22.24482],[88.00847,22.2049],[88.13258,22.17914],[88.16432,22.08979],[88.04314,22.01728],[87.98365,21.85419],[87.83399,21.72932],[87.70379,21.6555],[87.20094,21.55199],[87.06373,21.475],[86.91765,21.32738],[86.83725,21.17471],[86.844,21.08222],[86.96567,20.80598],[86.95387,20.78059],[86.87875,20.78059],[86.98658,20.75186],[86.99871,20.71113],[86.9402,20.69798],[86.99488,20.67072],[87.04322,20.69798],[86.75148,20.48916],[86.72047,20.36848],[86.78875,20.39012],[86.79615,20.43732],[86.80983,20.41511],[86.76832,20.34345],[86.6937,20.29393],[86.75465,20.31444],[86.49513,20.18407],[86.46713,20.09467],[86.39145,20.02021],[86.42628,19.99917],[86.39723,19.98286],[86.2754,20.06737],[86.20916,20.06664],[86.15252,20.14313],[86.16774,20.07294],[86.37241,19.96499],[86.08904,19.84422],[85.73439,19.76362],[85.48048,19.66633],[85.42701,19.70409],[85.57651,19.74584],[85.57032,19.87564],[85.44011,19.89623],[85.26808,19.78002],[85.14015,19.59658],[85.15138,19.56029],[85.10288,19.52961],[85.12403,19.47834],[85.23325,19.5541],[85.19304,19.5808],[85.24757,19.60871],[85.24757,19.65648],[85.30909,19.64224],[85.39145,19.69062],[85.40528,19.64594],[85.37794,19.61494],[85.28842,19.60126],[85.33058,19.5764],[85.57651,19.69062],[85.18043,19.475],[84.79103,19.12059],[84.73878,19.14765],[84.74049,19.07368],[84.78004,19.09707],[84.74106,19.02814],[84.42368,18.63646],[84.33286,18.5537],[84.24692,18.52558],[84.27101,18.50019],[84.34995,18.55292],[84.14389,18.37482],[84.11313,18.29829],[83.77516,18.13959],[83.61394,18.04515],[83.47291,17.90249],[83.45191,17.92292],[83.45297,17.86848],[83.34132,17.71743],[83.29859,17.69013],[83.24692,17.71625],[83.29908,17.66429],[83.2129,17.63491],[83.23894,17.59296],[82.89682,17.40933],[82.71852,17.34862],[82.38771,17.12694],[82.2527,16.92919],[82.26791,16.8675],[82.31422,16.84663],[82.36248,16.85908],[82.34889,16.95649],[82.36655,16.90864],[82.36557,16.81159],[82.33815,16.67841],[82.31284,16.60814],[82.28094,16.62084],[82.30738,16.57978],[82.06861,16.44428],[81.76295,16.32258],[81.58497,16.34211],[81.55698,16.37303],[81.41668,16.34016],[81.41139,16.38251],[81.25961,16.33271],[81.14975,15.96963],[80.99887,15.84675],[81.01254,15.77782],[80.91,15.85269],[80.89649,16.03107],[80.87534,16.0174],[80.89015,15.89525],[80.80714,15.71638],[80.77613,15.88426],[80.67018,15.9077],[80.39332,15.79702],[80.27963,15.70067],[80.21119,15.49665],[80.09059,15.30488],[80.05299,15.0926],[80.10816,14.71434],[80.17848,14.60578],[80.14186,14.57123],[80.19695,14.56501],[80.17498,14.34455],[80.12818,14.25654],[80.04664,14.20661],[80.13559,14.22919],[80.14967,14.02774],[80.24928,13.80028],[80.22096,13.69697],[80.31373,13.4409],[80.14186,13.72895],[80.13559,13.61909],[80.094,13.69477],[80.05299,13.61909],[80.1194,13.50068],[80.26588,13.46825],[80.3069,13.41303],[80.327,13.43037],[80.33277,13.19815],[80.1797,12.53262],[80.09596,12.36225],[79.94386,12.21784],[80.00514,12.24177],[79.86183,12.02204],[79.7859,11.76919],[79.75196,11.57697],[79.81935,11.3815],[79.74985,11.37368],[79.67628,11.29645],[79.75929,11.35834],[79.83302,11.34199],[79.8567,10.29328],[79.7951,10.26923],[79.75709,10.30907],[79.63315,10.3286],[79.61411,10.30956],[79.75896,10.28221],[79.75978,10.25825],[79.55665,10.29865],[79.60401,10.32909],[79.58692,10.3437],[79.45973,10.30829],[79.39812,10.32465],[79.28614,10.25283],[79.23634,10.16657],[79.27906,10.03583],[78.9808,9.66718],[78.91326,9.47427],[78.95973,9.38496],[79.07472,9.29987],[79.25172,9.28852],[79.34108,9.31586],[79.35353,9.24091],[79.45362,9.159],[79.29274,9.25031],[78.98894,9.27827],[78.67628,9.18415],[78.63478,9.1446],[78.41212,9.09984],[78.23976,8.96556],[78.18279,8.8771],[78.16236,8.75349],[78.21022,8.78828],[78.21518,8.76545],[78.1692,8.73363],[78.14259,8.6579],[78.11459,8.6579],[78.14234,8.59309],[78.12827,8.48802],[78.05592,8.36371],[77.76832,8.18155],[77.59523,8.13898],[77.56528,8.08251],[77.51092,8.076],[77.3086,8.13093],[76.99586,8.36811],[76.54396,8.9125],[76.62062,8.92544],[76.57399,8.94257],[76.60328,8.97321],[76.65756,8.96638],[76.63429,8.98688],[76.66847,9.00739],[76.58277,9.00056],[76.5586,8.95209],[76.56544,8.99433],[76.52809,8.94697],[76.46046,9.11494],[76.48276,9.17182],[76.46241,9.15135],[76.41456,9.24698],[76.44256,9.14517],[76.36297,9.32518],[76.31178,9.49299],[76.23634,9.9527],[76.25148,9.96312],[76.29103,9.9086],[76.25685,9.9086],[76.28077,9.84284],[76.3086,9.87962],[76.33888,9.69941],[76.33269,9.87075],[76.39405,9.67894],[76.35743,9.5207],[76.45899,9.4973],[76.50327,9.53498],[76.40699,9.56908],[76.39405,9.84284],[76.35922,9.91543],[76.27817,9.97793],[76.24513,10.1022],[76.21534,10.13825],[76.24269,9.98745],[76.18238,10.10566],[76.1775,10.17064],[76.24024,10.23896],[76.19483,10.26862],[76.20167,10.19969],[76.15317,10.22016],[76.05242,10.51398],[75.92205,10.76557],[75.94158,10.79621],[75.89454,10.84976],[75.73552,11.37153],[75.66481,11.46263],[75.6089,11.48493],[75.50611,11.72724],[75.32455,11.89912],[75.30763,11.9322],[75.40024,11.92023],[75.3934,11.97484],[75.34913,11.94758],[75.30226,11.96605],[75.2811,12.01065],[75.32976,12.01264],[75.30421,12.04316],[75.26433,12.01333],[75.2767,11.96743],[75.1937,12.02228],[75.13966,12.2486],[75.10548,12.22126],[74.82765,12.82465],[74.94093,12.87861],[74.81756,12.86176],[74.78338,13.08466],[74.68946,13.38158],[74.68092,13.46825],[74.6937,13.41527],[74.70826,13.41303],[74.66668,13.63276],[74.73561,13.65379],[74.68775,13.71182],[74.66049,13.66006],[74.61459,13.83552],[74.49537,14.03059],[74.42905,14.24042],[74.43336,14.26337],[74.50896,14.25031],[74.41538,14.30109],[74.3519,14.53022],[74.38885,14.46271],[74.42774,14.47626],[74.35873,14.57123],[74.33904,14.52399],[74.30055,14.52741],[74.29518,14.58731],[74.33904,14.61278],[74.27589,14.61017],[74.25294,14.71894],[74.22047,14.7381],[74.19435,14.71581],[74.09645,14.79336],[74.11866,14.83185],[74.15952,14.82567],[74.2352,14.87653],[74.20802,14.90082],[74.11183,14.84618],[74.03598,14.92129],[74.03126,14.99531],[73.9131,15.07892],[73.96217,15.15204],[73.89129,15.34321],[73.78289,15.4079],[73.89959,15.4079],[73.96778,15.37377],[73.92758,15.41739],[73.7964,15.44888],[73.81756,15.49665],[73.87224,15.51093],[73.86598,15.53758],[73.76629,15.49726],[73.73683,15.57172],[73.76043,15.63203],[73.83815,15.66112],[73.71827,15.62714],[73.70086,15.72321],[73.64625,15.73688],[73.60467,15.88085],[73.49098,15.99348],[73.51596,16.02485],[73.44703,16.06892],[73.48797,16.18936],[73.45281,16.16657],[73.44703,16.11359],[73.43523,16.21784],[73.35825,16.3675],[73.38494,16.4016],[73.34132,16.43207],[73.30299,16.53303],[73.3073,16.56318],[73.344,16.52359],[73.37867,16.5183],[73.31463,16.59943],[73.37127,16.61017],[73.31219,16.64472],[73.30372,16.81314],[73.26938,16.87564],[73.2894,16.98383],[73.25123,17.03217],[73.27573,17.0786],[73.18702,17.30598],[73.24903,17.28486],[73.17058,17.38972],[73.18067,17.47769],[73.12599,17.55655],[73.20069,17.58649],[73.12135,17.62641],[73.1233,17.73579],[73.00522,18.01236],[73.04347,18.06696],[73.0088,18.03901],[72.98732,18.06656],[72.9673,18.19599],[72.92693,18.22394],[72.93995,18.28604],[72.97267,18.2447],[73.05095,18.22748],[73.05747,18.18561],[73.07154,18.27302],[72.97739,18.29507],[72.89145,18.42939],[72.92465,18.53563],[73.0088,18.45051],[73.01498,18.46996],[72.9603,18.55467],[72.91017,18.55899],[72.85174,18.71967],[72.86557,18.79938],[72.92693,18.82665],[72.99513,18.73102],[73.01629,18.81363],[72.98129,18.83271],[72.9817,18.87149],[72.94614,18.8583],[72.89682,18.89448],[72.98829,18.96442],[72.95362,18.97126],[73.05681,19.01533],[72.98829,18.9986],[72.97478,19.16307],[72.93556,19.11506],[72.93426,19.03408],[72.89145,18.99177],[72.88526,19.02586],[72.86931,19.01142],[72.8213,18.90331],[72.80274,18.95759],[72.77036,18.94819],[72.82423,19.05353],[72.82309,19.16926],[72.78159,19.15965],[72.83009,19.25243],[72.7754,19.20466],[72.78541,19.31391],[72.97267,19.29369],[73.02662,19.20551],[73.04965,19.21772],[72.9878,19.30069],[72.89894,19.30703],[72.83692,19.34805],[72.80209,19.33194],[72.76344,19.38019],[72.75441,19.48176],[72.87916,19.53238],[72.79591,19.5268],[72.74195,19.5808],[72.75563,19.51935],[72.7225,19.53628],[72.6867,19.7248],[72.72641,19.7058],[72.73276,19.77973],[72.67791,19.74657],[72.64918,19.852],[72.75563,20.21516],[72.74822,20.28034],[72.88649,20.53156],[72.89894,20.73216],[72.94679,20.75947],[72.91944,20.82152],[72.88575,20.80711],[72.9004,20.86811],[72.83692,20.83584],[72.86492,20.89728],[72.83668,20.92992],[72.88844,20.98261],[72.83269,20.97236],[72.77198,21.02387],[72.84986,21.048],[72.80958,21.13003],[72.74195,21.12324],[72.70037,21.07477],[72.71404,21.16413],[72.67644,21.15363],[72.67123,21.0998],[72.615,21.10586],[72.73455,21.19892],[72.64576,21.27338],[72.61842,21.25292],[72.58676,21.34121],[72.64576,21.36278],[72.56463,21.38581],[72.74708,21.45287],[72.73829,21.48286],[72.58367,21.41743],[72.61964,21.48737],[72.82309,21.64395],[72.88966,21.64053],[73.13201,21.7578],[72.92693,21.68496],[72.5503,21.66669],[72.52849,21.69514],[72.56691,21.84935],[72.61842,21.92512],[72.69011,21.93879],[72.73455,21.99405],[72.54274,21.91083],[72.50172,21.97602],[72.5359,22.14053],[72.57545,22.19453],[72.63445,22.21039],[72.74822,22.16405],[72.81227,22.23412],[72.91603,22.22309],[72.91749,22.27143],[72.7566,22.24372],[72.57374,22.28823],[72.46616,22.23257],[72.46388,22.26398],[72.39186,22.25349],[72.39723,22.36677],[72.3283,22.26073],[72.27516,22.26032],[72.24041,22.30191],[72.14877,22.2779],[72.19068,22.25129],[72.24041,22.28823],[72.23911,22.23892],[72.30649,22.22956],[72.30763,22.07901],[72.25766,22.01215],[72.17311,21.97565],[72.09702,22.00703],[72.1281,21.98355],[72.07651,21.97972],[72.10206,21.94505],[72.02866,21.93879],[72.1565,21.92585],[72.16944,21.84138],[72.05795,21.89875],[72.1045,21.83576],[72.00416,21.85773],[71.9961,21.79951],[72.02182,21.77432],[72.16603,21.79393],[72.29884,21.62629],[72.2199,21.44473],[72.1045,21.31501],[72.10475,21.20506],[71.76295,21.03229],[71.58351,20.95824],[71.54957,20.95124],[71.55112,20.97358],[71.46225,20.88532],[71.14064,20.76569],[71.00766,20.7416],[70.98243,20.71015],[70.74024,20.71849],[70.33668,20.92707],[70.05445,21.15316],[69.8086,21.46581],[69.42742,21.78124],[69.39088,21.8767],[69.33619,21.86245],[69.19842,21.97972],[68.94459,22.29507],[68.98325,22.41938],[69.07358,22.48188],[69.04819,22.43159],[69.07179,22.39948],[69.20216,22.41486],[69.16969,22.32795],[69.21209,22.27391],[69.47967,22.34223],[69.52565,22.39208],[69.51596,22.44815],[69.54786,22.45209],[69.5547,22.37763],[69.61606,22.3559],[69.69939,22.40428],[69.73341,22.48005],[69.79493,22.41861],[69.97299,22.54145],[70.17848,22.56196],[70.37525,22.90266],[70.50473,22.97956],[70.52849,23.04706],[70.50294,23.1044],[70.46713,23.12971],[70.39877,23.06904],[70.39243,22.94086],[70.30348,22.93814],[70.23308,23.00015],[70.22202,22.95917],[70.1631,22.94896],[70.13063,22.99396],[70.10955,22.95917],[70.13543,22.93],[69.83318,22.85847],[69.71583,22.74689],[69.5857,22.76118],[69.20191,22.85224],[68.86622,23.01996],[68.65406,23.15778],[68.59995,23.22504],[68.62306,23.26765],[68.55226,23.25971],[68.56105,23.31611],[68.60694,23.32559],[68.52068,23.36921],[68.53639,23.42133],[68.47535,23.40485],[68.46551,23.44579],[68.42368,23.44579],[68.48585,23.51411],[68.43735,23.54881],[68.44695,23.503],[68.41163,23.4947],[68.40886,23.62132],[68.49147,23.61884],[68.46941,23.65925],[68.53354,23.67919],[68.67075,23.81574],[68.82163,23.8784],[68.63347,23.83308],[68.59889,23.78189],[68.42774,23.7143],[68.32732,23.5869],[68.1434,23.6127],[68.19966,23.6596],[68.27589,23.66584],[68.28045,23.68598],[68.20875,23.69623],[68.19776,23.77481],[68.16375,23.75772],[68.18352,23.8433],[68.26036,23.89555],[68.26393,23.93593],[68.30041,23.91051],[68.34263,23.96856],[68.35364,23.93929],[68.43156,23.96714],[68.72447,23.96518],[68.74731,24.33118],[68.79919,24.32908],[68.83877,24.23645],[68.9042,24.32058],[68.96264,24.25723],[69.0677,24.28844],[69.16671,24.25317],[69.28081,24.28374],[69.56307,24.27676],[69.71459,24.16858],[69.97204,24.16522],[70.05214,24.20206],[70.09787,24.29883],[70.41635,24.40195],[70.56291,24.42409],[70.56766,24.27281],[70.75545,24.23144],[70.85147,24.26488],[70.84093,24.30583],[70.91772,24.36172],[70.99668,24.3566],[71.08277,24.41151],[70.97715,24.46494],[70.95482,24.58452],[70.97715,24.63969],[71.06386,24.68258],[70.91524,24.94662],[70.84857,25.16332],[70.73489,25.26735],[70.65448,25.39659],[70.65386,25.67445],[70.59226,25.70882],[70.36013,25.67347],[70.24923,25.70768],[70.06464,25.98033],[70.07829,26.09965],[70.14691,26.21742],[70.15807,26.53011],[70.05606,26.58908],[69.81556,26.58029],[69.50416,26.73517],[69.46509,26.80777],[69.53444,27.12558],[69.99354,27.57108],[70.10195,27.81174],[70.34194,28.01147],[70.45625,28.03979],[70.5349,28.01597],[70.63319,27.93163],[70.64073,27.85479],[70.71039,27.74115],[70.83157,27.70146],[71.22633,27.84536],[71.56073,27.86853],[71.8744,27.95969],[71.9083,28.13557],[72.14994,28.35377],[72.2565,28.64559],[72.35458,28.76719],[72.93036,29.04769],[73.23287,29.5366],[73.37033,29.92732],[73.55781,30.01254],[73.73972,30.04845],[73.94435,30.18829],[73.93464,30.26105],[73.85175,30.37267],[74.05753,30.53137],[74.06745,30.61054],[74.16367,30.6649],[74.31922,30.89341],[74.40128,30.8931],[74.65883,31.08379],[74.61697,31.11526],[74.53677,31.11516],[74.50639,31.17541],[74.53223,31.30321],[74.61718,31.45891],[74.48944,31.71119],[74.55042,31.827],[74.69842,31.95025],[74.78368,31.94286],[74.82864,32.02544],[74.95566,32.03221],[75.04082,32.09799],[75.17415,32.08683],[75.19575,32.12863],[75.29466,32.14889],[75.35905,32.26168],[75.23017,32.3802],[75.02367,32.46626],[74.90698,32.44518],[74.83815,32.47487],[74.68932,32.47135],[74.62958,32.58809],[74.68912,32.80883],[74.67175,32.84058],[74.57377,32.75255],[74.50091,32.74601],[74.43869,32.78598],[74.34619,32.76689],[74.31699,32.82307],[73.98301,32.96907],[73.94301,33.01819],[73.80586,33.01514],[73.62251,33.12449],[73.65486,33.18469],[73.61466,33.23244],[73.58117,33.22916],[73.60319,33.33303],[73.57383,33.38739],[73.62758,33.45207],[73.63502,33.5408],[73.57311,33.63366],[73.60029,33.70859],[73.56722,33.80344],[73.57983,33.91046],[73.51864,34.00777],[73.4741,34.26918],[73.4002,34.37553],[73.43669,34.52216],[73.46407,34.57055],[73.59316,34.58833],[73.62344,34.56399],[73.65083,34.6767],[73.74023,34.78475],[73.884,34.81069],[74.01784,34.88066],[74.10031,35.00965],[74.06755,35.05538],[74.12439,35.10509],[74.10186,35.14049],[73.80962,35.23352],[73.72215,35.21573],[73.69021,35.35743],[73.78416,35.44714],[73.77207,35.52197],[73.40971,35.54775],[73.38253,35.58822],[73.30708,35.60031],[73.12559,35.7248],[73.15474,35.82489],[73.08839,35.8759],[72.87217,35.8743],[72.79238,35.83756],[72.5156,35.90396],[72.58909,36.01615],[72.52914,36.09754],[72.58599,36.25784],[72.69244,36.27107],[72.87693,36.38429],[72.89574,36.46155],[72.98493,36.47276],[72.97987,36.5078],[73.055,36.53963],[73.09448,36.6033],[73.07815,36.70081],[73.41601,36.75207],[73.67863,36.70396],[73.72122,36.72711],[73.87935,36.71161],[73.8873,36.77052],[73.72029,36.85114],[73.71184,36.89414],[74.0353,36.81558],[74.09432,36.83124],[74.12967,36.89842],[74.23571,36.90217],[74.43559,37.00322],[74.53739,36.96224],[74.54235,37.02167],[74.66245,37.05448],[74.82451,36.99413],[74.87236,36.9071],[74.92497,36.97087],[75.10015,36.99413],[75.3513,36.91578],[75.43191,36.72293],[75.49258,36.72071],[75.57051,36.76675],[75.72874,36.72319],[75.87478,36.61947],[75.98108,36.44544],[76.14928,36.42455],[76.23899,36.3199],[76.38886,36.30977],[76.46926,36.22001],[76.71876,36.15991],[76.77891,36.03982],[76.77891,35.91026],[76.83906,35.85952],[77.00856,35.81973],[77.08959,35.7402],[77.20896,35.70966],[77.34859,35.71978],[77.42135,35.64015],[77.46889,35.65188],[77.51961,35.47744],[77.66061,35.4581],[77.76035,35.49809],[77.88985,35.48176],[77.95476,35.56171],[78.10162,35.5383],[78.16187,35.62361],[78.27577,35.69472],[78.54531,35.78112],[78.66479,35.85254],[78.97143,35.88743],[79.13253,35.83622],[79.19405,35.88692],[79.18362,35.94132],[79.29007,35.97729],[79.40025,35.96199],[79.46082,35.88577],[79.73754,35.80201],[79.87556,35.78496],[80.00452,35.83893],[80.11107,35.68001],[80.2915,35.60742],[80.32712,35.47687],[80.28442,35.44552],[80.26128,35.26989],[80.18796,35.15064],[80.16261,34.95088],[80.07791,34.83733],[80.04972,34.67313],[79.99577,34.6475],[79.86678,34.65804],[79.81335,34.56538],[79.70214,34.52035],[79.73677,34.46332],[79.71268,34.41532],[79.52303,34.42609],[79.55156,34.20957],[79.4882,34.18189],[79.49502,34.10593],[79.40552,34.0219],[79.13225,34.02648],[78.90281,33.98317],[78.89754,33.90747],[78.99128,33.75192],[79.01278,33.63368],[78.89599,33.62009],[78.91769,33.38626]]]}}
